GLOBALSTAR M045         
1 25676U 99019A   25039.08363190 -.00000070  00000+0  21154-3 0  9996
2 25676  51.9990 313.2439 0000707  25.5840  80.0841 12.27056046177788
GLOBALSTAR M044         
1 25678U 99019C   25038.62802618 -.00000122  00000+0 -53034-3 0  9991
2 25678  51.9997  10.9400 0006429 149.2526  22.1937 11.90247527155894
GLOBALSTAR M025         
1 25770U 99031A   25038.86113082 -.00000068  00000+0 -57871-5 0  9998
2 25770  51.9816  98.8645 0000984 265.7527 265.7517 11.22558921467183
GLOBALSTAR M049         
1 25771U 99031B   25039.18874282 -.00000082  00000+0 -56923-3 0  9992
2 25771  51.9873 126.3863 0004085 150.9343 209.1682 11.12114772103074
GLOBALSTAR M052         
1 25773U 99031D   25038.85894650 -.00000079  00000+0 -42773-3 0  9992
2 25773  51.9830 237.6302 0001934 346.5198  26.2556 11.15057785464086
